{"type": "FeatureCollection", "features": [{"type": "Feature", "properties": {"norad_id": 24946, "name": "IRIDIUM 33", "group": "iridium-33-debris", "lat": -1.1228899243101051, "lon": 61.754030065302224, "alt_km": 783.6710150549634, "timestamp": "2025-12-27T23:26:37.748015+00:00", "meta": {"OBJECT_NAME": "IRIDIUM 33", "OBJECT_ID": "1997-051C", "EPOCH": "2025-12-27T10:03:40.428288", "MEAN_MOTION": 14.3504753, "ECCENTRICITY": 0.0008742, "INCLINATION": 86.3857, "RA_OF_ASC_NODE": 62.0591, "ARG_OF_PERICENTER": 153.7096, "MEAN_ANOMALY": 206.4545, "EPHEMERIS_TYPE": 0, "CLASSIFICATION_TYPE": "U", "NORAD_CAT_ID": 24946, "ELEMENT_SET_NO": 999, "REV_AT_EPOCH": 48045, "BSTAR": 0.00012364, "MEAN_MOTION_DOT": 3.72e-06, "MEAN_MOTION_DDOT": 0}, "tle": {"line1": "1 24946U 97051C   25361.41921792  .00000372  00000+0  12364-3 0  9999", "line2": "2 24946  86.3857  62.0591 0008742 153.7096 206.4545 14.35047530480458"}}, "geometry": {"type": "Point", "coordinates": [61.754030065302224, -1.1228899243101051]}}, {"type": "Feature", "properties": {"norad_id": 33773, "name": "IRIDIUM 33 DEB", "group": "iridium-33-debris", "lat": 46.51016852120204, "lon": 57.937337750358864, "alt_km": 738.3033109622347, "timestamp": "2025-12-27T23:26:37.748059+00:00", "meta": {"OBJECT_NAME": "IRIDIUM 33 DEB", "OBJECT_ID": "1997-051L", "EPOCH": "2025-12-27T04:55:31.304352", "MEAN_MOTION": 14.43287164, "ECCENTRICITY": 0.0013364, "INCLINATION": 86.3996, "RA_OF_ASC_NODE": 54.4587, "ARG_OF_PERICENTER": 105.064, "MEAN_ANOMALY": 255.2041, "EPHEMERIS_TYPE": 0, "CLASSIFICATION_TYPE": "U", "NORAD_CAT_ID": 33773, "ELEMENT_SET_NO": 999, "REV_AT_EPOCH": 88556, "BSTAR": 0.00032311, "MEAN_MOTION_DOT": 1.109e-05, "MEAN_MOTION_DDOT": 0}, "tle": {"line1": "1 33773U 97051L   25361.20522343  .00001109  00000+0  32311-3 0  9996", "line2": "2 33773  86.3996  54.4587 0013364 105.0640 255.2041 14.43287164885563"}}, "geometry": {"type": "Point", "coordinates": [57.937337750358864, 46.51016852120204]}}, {"type": "Feature", "properties": {"norad_id": 33775, "name": "IRIDIUM 33 DEB", "group": "iridium-33-debris", "lat": 32.0652468265152, "lon": 45.33132167170494, "alt_km": 749.3119399919724, "timestamp": "2025-12-27T23:26:37.748076+00:00", "meta": {"OBJECT_NAME": "IRIDIUM 33 DEB", "OBJECT_ID": "1997-051N", "EPOCH": "2025-12-27T11:52:15.276000", "MEAN_MOTION": 14.41500155, "ECCENTRICITY": 0.0015407, "INCLINATION": 86.3623, "RA_OF_ASC_NODE": 43.2532, "ARG_OF_PERICENTER": 111.0238, "MEAN_ANOMALY": 300.6203, "EPHEMERIS_TYPE": 0, "CLASSIFICATION_TYPE": "U", "NORAD_CAT_ID": 33775, "ELEMENT_SET_NO": 999, "REV_AT_EPOCH": 88353, "BSTAR": 0.00035939, "MEAN_MOTION_DOT": 1.188e-05, "MEAN_MOTION_DDOT": 0}, "tle": {"line1": "1 33775U 97051N   25361.49462125  .00001188  00000+0  35939-3 0  9996", "line2": "2 33775  86.3623  43.2532 0015407 111.0238 300.6203 14.41500155883534"}}, "geometry": {"type": "Point", "coordinates": [45.33132167170494, 32.0652468265152]}}, {"type": "Feature", "properties": {"norad_id": 33776, "name": "IRIDIUM 33 DEB", "group": "iridium-33-debris", "lat": 83.54792714804029, "lon": 108.17214118654041, "alt_km": 750.7365394805747, "timestamp": "2025-12-27T23:26:37.748089+00:00", "meta": {"OBJECT_NAME": "IRIDIUM 33 DEB", "OBJECT_ID": "1997-051P", "EPOCH": "2025-12-27T06:39:04.912416", "MEAN_MOTION": 14.38259855, "ECCENTRICITY": 0.0015922, "INCLINATION": 86.403, "RA_OF_ASC_NODE": 74.6707, "ARG_OF_PERICENTER": 144.617, "MEAN_ANOMALY": 279.6987, "EPHEMERIS_TYPE": 0, "CLASSIFICATION_TYPE": "U", "NORAD_CAT_ID": 33776, "ELEMENT_SET_NO": 999, "REV_AT_EPOCH": 88291, "BSTAR": 0.00028581, "MEAN_MOTION_DOT": 8.89e-06, "MEAN_MOTION_DDOT": 0}, "tle": {"line1": "1 33776U 97051P   25361.27714019  .00000889  00000+0  28581-3 0  9997", "line2": "2 33776  86.4030  74.6707 0015922 144.6170 279.6987 14.38259855882918"}}, "geometry": {"type": "Point", "coordinates": [108.17214118654041, 83.54792714804029]}}, {"type": "Feature", "properties": {"norad_id": 33777, "name": "IRIDIUM 33 DEB", "group": "iridium-33-debris", "lat": 73.13730501465383, "lon": -163.48975987266942, "alt_km": 699.3143332048803, "timestamp": "2025-12-27T23:26:37.748102+00:00", "meta": {"OBJECT_NAME": "IRIDIUM 33 DEB", "OBJECT_ID": "1997-051Q", "EPOCH": "2025-12-27T11:24:28.894752", "MEAN_MOTION": 14.55715812, "ECCENTRICITY": 0.0006611, "INCLINATION": 86.3777, "RA_OF_ASC_NODE": 28.7915, "ARG_OF_PERICENTER": 188.422, "MEAN_ANOMALY": 171.6878, "EPHEMERIS_TYPE": 0, "CLASSIFICATION_TYPE": "U", "NORAD_CAT_ID": 33777, "ELEMENT_SET_NO": 999, "REV_AT_EPOCH": 88748, "BSTAR": 0.00087872, "MEAN_MOTION_DOT": 3.862e-05, "MEAN_MOTION_DDOT": 0}, "tle": {"line1": "1 33777U 97051Q   25361.47533443  .00003862  00000+0  87872-3 0  9992", "line2": "2 33777  86.3777  28.7915 0006611 188.4220 171.6878 14.55715812887480"}}, "geometry": {"type": "Point", "coordinates": [-163.48975987266942, 73.13730501465383]}}, {"type": "Feature", "properties": {"norad_id": 33850, "name": "IRIDIUM 33 DEB", "group": "iridium-33-debris", "lat": 50.22803328819577, "lon": 28.036355593743, "alt_km": 742.7705648699048, "timestamp": "2025-12-27T23:26:37.748123+00:00", "meta": {"OBJECT_NAME": "IRIDIUM 33 DEB", "OBJECT_ID": "1997-051T", "EPOCH": "2025-12-27T12:07:20.176032", "MEAN_MOTION": 14.42185643, "ECCENTRICITY": 0.0013399, "INCLINATION": 86.3408, "RA_OF_ASC_NODE": 23.8297, "ARG_OF_PERICENTER": 117.3157, "MEAN_ANOMALY": 5.6543, "EPHEMERIS_TYPE": 0, "CLASSIFICATION_TYPE": "U", "NORAD_CAT_ID": 33850, "ELEMENT_SET_NO": 999, "REV_AT_EPOCH": 88365, "BSTAR": 0.00049402, "MEAN_MOTION_DOT": 1.647e-05, "MEAN_MOTION_DDOT": 0}, "tle": {"line1": "1 33850U 97051T   25361.50509463  .00001647  00000+0  49402-3 0  9999", "line2": "2 33850  86.3408  23.8297 0013399 117.3157   5.6543 14.42185643883652"}}, "geometry": {"type": "Point", "coordinates": [28.036355593743, 50.22803328819577]}}, {"type": "Feature", "properties": {"norad_id": 33853, "name": "IRIDIUM 33 DEB", "group": "iridium-33-debris", "lat": -56.58664831648982, "lon": 169.21760029035403, "alt_km": 800.8102566586585, "timestamp": "2025-12-27T23:26:37.748136+00:00", "meta": {"OBJECT_NAME": "IRIDIUM 33 DEB", "OBJECT_ID": "1997-051W", "EPOCH": "2025-12-27T10:55:48.364896", "MEAN_MOTION": 13.99131757, "ECCENTRICITY": 0.0207891, "INCLINATION": 86.0001, "RA_OF_ASC_NODE": 343.3579, "ARG_OF_PERICENTER": 190.429, "MEAN_ANOMALY": 299.8978, "EPHEMERIS_TYPE": 0, "CLASSIFICATION_TYPE": "U", "NORAD_CAT_ID": 33853, "ELEMENT_SET_NO": 999, "REV_AT_EPOCH": 85551, "BSTAR": 0.0013259, "MEAN_MOTION_DOT": 2.329e-05, "MEAN_MOTION_DDOT": 0}, "tle": {"line1": "1 33853U 97051W   25361.45542089  .00002329  00000+0  13259-2 0  9995", "line2": "2 33853  86.0001 343.3579 0207891 190.4290 299.8978 13.99131757855517"}}, "geometry": {"type": "Point", "coordinates": [169.21760029035403, -56.58664831648982]}}, {"type": "Feature", "properties": {"norad_id": 33860, "name": "IRIDIUM 33 DEB", "group": "iridium-33-debris", "lat": -69.94187241544408, "lon": 10.514513459205116, "alt_km": 672.2061504206695, "timestamp": "2025-12-27T23:26:37.748147+00:00", "meta": {"OBJECT_NAME": "IRIDIUM 33 DEB", "OBJECT_ID": "1997-051AD", "EPOCH": "2025-12-27T07:27:44.771904", "MEAN_MOTION": 14.67547387, "ECCENTRICITY": 0.0005777, "INCLINATION": 86.3828, "RA_OF_ASC_NODE": 20.7863, "ARG_OF_PERICENTER": 298.5485, "MEAN_ANOMALY": 75.5112, "EPHEMERIS_TYPE": 0, "CLASSIFICATION_TYPE": "U", "NORAD_CAT_ID": 33860, "ELEMENT_SET_NO": 999, "REV_AT_EPOCH": 88936, "BSTAR": 0.0012984, "MEAN_MOTION_DOT": 7.389e-05, "MEAN_MOTION_DDOT": 0}, "tle": {"line1": "1 33860U 97051AD  25361.31093486  .00007389  00000+0  12984-2 0  9995", "line2": "2 33860  86.3828  20.7863 0005777 298.5485  75.5112 14.67547387889367"}}, "geometry": {"type": "Point", "coordinates": [10.514513459205116, -69.94187241544408]}}, {"type": "Feature", "properties": {"norad_id": 33862, "name": "IRIDIUM 33 DEB", "group": "iridium-33-debris", "lat": 81.83429244602834, "lon": 56.76772438378774, "alt_km": 638.8893002817622, "timestamp": "2025-12-27T23:26:37.748158+00:00", "meta": {"OBJECT_NAME": "IRIDIUM 33 DEB", "OBJECT_ID": "1997-051AF", "EPOCH": "2025-12-27T12:10:45.109056", "MEAN_MOTION": 14.69721797, "ECCENTRICITY": 0.0051749, "INCLINATION": 86.4084, "RA_OF_ASC_NODE": 31.0161, "ARG_OF_PERICENTER": 19.5043, "MEAN_ANOMALY": 100.8715, "EPHEMERIS_TYPE": 0, "CLASSIFICATION_TYPE": "U", "NORAD_CAT_ID": 33862, "ELEMENT_SET_NO": 999, "REV_AT_EPOCH": 89040, "BSTAR": 0.0016939, "MEAN_MOTION_DOT": 0.0001033, "MEAN_MOTION_DDOT": 0}, "tle": {"line1": "1 33862U 97051AF  25361.50746654  .00010330  00000+0  16939-2 0  9994", "line2": "2 33862  86.4084  31.0161 0051749  19.5043 100.8715 14.69721797890400"}}, "geometry": {"type": "Point", "coordinates": [56.76772438378774, 81.83429244602834]}}, {"type": "Feature", "properties": {"norad_id": 33866, "name": "IRIDIUM 33 DEB", "group": "iridium-33-debris", "lat": -62.05291734165778, "lon": -86.4044593791572, "alt_km": 866.366969706758, "timestamp": "2025-12-27T23:26:37.748169+00:00", "meta": {"OBJECT_NAME": "IRIDIUM 33 DEB", "OBJECT_ID": "1997-051AK", "EPOCH": "2025-12-27T07:29:19.729824", "MEAN_MOTION": 14.25320809, "ECCENTRICITY": 0.0115259, "INCLINATION": 86.2998, "RA_OF_ASC_NODE": 86.8706, "ARG_OF_PERICENTER": 115.2237, "MEAN_ANOMALY": 316.9491, "EPHEMERIS_TYPE": 0, "CLASSIFICATION_TYPE": "U", "NORAD_CAT_ID": 33866, "ELEMENT_SET_NO": 999, "REV_AT_EPOCH": 87018, "BSTAR": 0.00066919, "MEAN_MOTION_DOT": 1.709e-05, "MEAN_MOTION_DDOT": 0}, "tle": {"line1": "1 33866U 97051AK  25361.31203391  .00001709  00000+0  66919-3 0  9997", "line2": "2 33866  86.2998  86.8706 0115259 115.2237 316.9491 14.25320809870180"}}, "geometry": {"type": "Point", "coordinates": [-86.4044593791572, -62.05291734165778]}}]}